ONEWEB-0258             
1 48976U 21060K   24321.14746688  .00000142  00000+0  33707-3 0  9998
2 48976  87.9096 343.9555 0001753  92.0221 268.1111 13.16596099164810
ONEWEB-0259             
1 48977U 21060L   24320.76115416  .00000149  00000+0  35700-3 0  9997
2 48977  87.9096 344.0170 0001643  86.7357 273.3962 13.16596533163515
ONEWEB-0260             
1 48978U 21060M   24320.82844874  .00000136  00000+0  32187-3 0  9994
2 48978  87.9095 344.0329 0002378  97.1779 262.9622 13.16593325163503
ONEWEB-0261             
1 48979U 21060N   24320.49363994  .00000019  00000+0  16480-4 0  9996
2 48979  87.9099 344.0969 0002170  80.9479 279.1897 13.16596181163513
ONEWEB-0262             
1 48980U 21060P   24320.77857174  .00000007  00000+0 -16204-4 0  9999
2 48980  87.9096 344.0005 0001664  79.9297 280.2022 13.16594991163516
ONEWEB-0263             
1 48981U 21060Q   24320.81023167  .00000042  00000+0  75213-4 0  9995
2 48981  87.9096 344.0150 0001886  79.4829 280.6514 13.16594655163483
ONEWEB-0264             
1 48982U 21060R   24320.77144475  .00000123  00000+0  28730-3 0  9998
2 48982  87.9100 344.0328 0001844  90.5689 269.5653 13.16596534163487
ONEWEB-0266             
1 48984U 21060T   24320.79280890  .00000030  00000+0  44366-4 0  9995
2 48984  87.9095 344.0023 0001701  94.0167 266.1159 13.16597188163475
